LEMUR-2-PETERG          
1 42841U 17042S   26068.48235713  .00023240  00000+0  81076-3 0  9993
2 42841  97.3980 253.6596 0003700 341.6938  18.4169 15.29611459473171
STARLINK-32294          
1 61675U 24193Q   26068.38844118 -.00000594  00000+0 -79391-5 0  9996
2 61675  53.1599  92.1815 0001332  86.2301 273.8852 15.30187949 76481
